{"type": "FeatureCollection", "features": [ {"type": "Feature", "properties": {"norad_id": 66386, "name": "STARLINK-35651", "group": "last-30-days", "lat": 6.005214951176666, "lon": -72.12211227137654, "alt_km": 447.36352153444295, "timestamp": "2025-12-08T17:43:03.630586+00:00", "meta": {"OBJECT_NAME": "STARLINK-35651", "OBJECT_ID": "2025-257G", "EPOCH": "2025-12-08T05:13:17.059584", "MEAN_MOTION": 15.39563255, "ECCENTRICITY": 0.00010047, "INCLINATION": 53.1605, "RA_OF_ASC_NODE": 285.8085, "ARG_OF_PERICENTER": 102.5868, "MEAN_ANOMALY": 257.5249, "EPHEMERIS_TYPE": 0, "CLASSIFICATION_TYPE": "U", "NORAD_CAT_ID": 66386, "ELEMENT_SET_NO": 999, "REV_AT_EPOCH": 567, "BSTAR": 0.0016414731, "MEAN_MOTION_DOT": 0.00065702, "MEAN_MOTION_DDOT": 0}, "tle": {"line1": "1 66386U 25257G   25342.21755856  .00065702  00000+0  16415-2 0  9993", "line2": "2 66386  53.1605 285.8085 0001004 102.5868 257.5249 15.39563255  5678"}}, "geometry": {"type": "Point", "coordinates": [-72.12211227137654, 6.005214951176666]}}, {"type": "Feature", "properties": {"norad_id": 66387, "name": "STARLINK-35661", "group": "last-30-days", "lat": 7.543128612941054, "lon": -70.95199497149369, "alt_km": 445.77747025675217, "timestamp": "2025-12-08T17:43:03.630599+00:00", "meta": {"OBJECT_NAME": "STARLINK-35661", "OBJECT_ID": "2025-257H", "EPOCH": "2025-12-08T02:05:51.973440", "MEAN_MOTION": 15.39611188, "ECCENTRICITY": 0.00018353, "INCLINATION": 53.1611, "RA_OF_ASC_NODE": 286.4184, "ARG_OF_PERICENTER": 40.2871, "MEAN_ANOMALY": 319.827, "EPHEMERIS_TYPE": 0, "CLASSIFICATION_TYPE": "U", "NORAD_CAT_ID": 66387, "ELEMENT_SET_NO": 999, "REV_AT_EPOCH": 565, "BSTAR": 0.0019020074, "MEAN_MOTION_DOT": 0.00076424, "MEAN_MOTION_DDOT": 0}, "tle": {"line1": "1 66387U 25257H   25342.08740710  .00076424  00000+0  19020-2 0  9990", "line2": "2 66387  53.1611 286.4184 0001835  40.2871 319.8270 15.39611188  5650"}}, "geometry": {"type": "Point", "coordinates": [-70.95199497149369, 7.543128612941054]}}, {"type": "Feature", "properties": {"norad_id": 66388, "name": "STARLINK-35647", "group": "last-30-days", "lat": 26.112135261259134, "lon": -55.138972619166445, "alt_km": 443.06193414606787, "timestamp": "2025-12-08T17:43:03.630611+00:00", "meta": {"OBJECT_NAME": "STARLINK-35647", "OBJECT_ID": "2025-257J", "EPOCH": "2025-12-08T03:33:07.741728", "MEAN_MOTION": 15.39625137, "ECCENTRICITY": 0.00026038, "INCLINATION": 53.1644, "RA_OF_ASC_NODE": 286.0862, "ARG_OF_PERICENTER": 88.2986, "MEAN_ANOMALY": 271.8317, "EPHEMERIS_TYPE": 0, "CLASSIFICATION_TYPE": "U", "NORAD_CAT_ID": 66388, "ELEMENT_SET_NO": 999, "REV_AT_EPOCH": 566, "BSTAR": 0.0012157593, "MEAN_MOTION_DOT": 0.00048551, "MEAN_MOTION_DDOT": 0}, "tle": {"line1": "1 66388U 25257J   25342.14800627  .00048551  00000+0  12158-2 0  9997", "line2": "2 66388  53.1644 286.0862 0002603  88.2986 271.8317 15.39625137  5668"}}, "geometry": {"type": "Point", "coordinates": [-55.138972619166445, 26.112135261259134]}}, {"type": "Feature", "properties": {"norad_id": 66389, "name": "STARLINK-35694", "group": "last-30-days", "lat": 44.371212784468604, "lon": -29.573830837216388, "alt_km": 440.495034723338, "timestamp": "2025-12-08T17:43:03.630622+00:00", "meta": {"OBJECT_NAME": "STARLINK-35694", "OBJECT_ID": "2025-257K", "EPOCH": "2025-12-08T06:00:02.999808", "MEAN_MOTION": 15.39563097, "ECCENTRICITY": 0.0001181, "INCLINATION": 53.1591, "RA_OF_ASC_NODE": 285.5497, "ARG_OF_PERICENTER": 74.9333, "MEAN_ANOMALY": 158.6284, "EPHEMERIS_TYPE": 0, "CLASSIFICATION_TYPE": "U", "NORAD_CAT_ID": 66389, "ELEMENT_SET_NO": 999, "REV_AT_EPOCH": 577, "BSTAR": 0.0019676833, "MEAN_MOTION_DOT": 0.00078977, "MEAN_MOTION_DDOT": 0}, "tle": {"line1": "1 66389U 25257K   25342.25003472  .00078977  00000+0  19677-2 0  9991", "line2": "2 66389  53.1591 285.5497 0001181  74.9333 158.6284 15.39563097  5779"}}, "geometry": {"type": "Point", "coordinates": [-29.573830837216388, 44.371212784468604]}}, {"type": "Feature", "properties": {"norad_id": 66390, "name": "STARLINK-35665", "group": "last-30-days", "lat": -46.33007802202202, "lon": 154.63157777252667, "alt_km": 423.9818007937856, "timestamp": "2025-12-08T17:43:03.630634+00:00", "meta": {"OBJECT_NAME": "STARLINK-35665", "OBJECT_ID": "2025-257L", "EPOCH": "2025-12-08T04:16:51.292416", "MEAN_MOTION": 15.49311132, "ECCENTRICITY": 0.0001407, "INCLINATION": 53.1603, "RA_OF_ASC_NODE": 285.556, "ARG_OF_PERICENTER": 85.3677, "MEAN_ANOMALY": 274.7492, "EPHEMERIS_TYPE": 0, "CLASSIFICATION_TYPE": "U", "NORAD_CAT_ID": 66390, "ELEMENT_SET_NO": 999, "REV_AT_EPOCH": 577, "BSTAR": 0.0014290723, "MEAN_MOTION_DOT": 0.00079854, "MEAN_MOTION_DDOT": 0}, "tle": {"line1": "1 66390U 25257L   25342.17837144  .00079854  00000+0  14291-2 0  9997", "line2": "2 66390  53.1603 285.5560 0001407  85.3677 274.7492 15.49311132  5777"}}, "geometry": {"type": "Point", "coordinates": [154.63157777252667, -46.33007802202202]}}, {"type": "Feature", "properties": {"norad_id": 66391, "name": "STARLINK-35656", "group": "last-30-days", "lat": 43.39028898957568, "lon": -31.630263451537758, "alt_km": 440.8067121668073, "timestamp": "2025-12-08T17:43:03.630645+00:00", "meta": {"OBJECT_NAME": "STARLINK-35656", "OBJECT_ID": "2025-257M", "EPOCH": "2025-12-08T06:33:23.584896", "MEAN_MOTION": 15.39625286, "ECCENTRICITY": 9.076e-05, "INCLINATION": 53.1594, "RA_OF_ASC_NODE": 285.4288, "ARG_OF_PERICENTER": 100.2152, "MEAN_ANOMALY": 259.8955, "EPHEMERIS_TYPE": 0, "CLASSIFICATION_TYPE": "U", "NORAD_CAT_ID": 66391, "ELEMENT_SET_NO": 999, "REV_AT_EPOCH": 578, "BSTAR": 0.0018211814, "MEAN_MOTION_DOT": 0.00073161, "MEAN_MOTION_DDOT": 0}, "tle": {"line1": "1 66391U 25257M   25342.27318964  .00073161  00000+0  18212-2 0  9995", "line2": "2 66391  53.1594 285.4288 0000907 100.2152 259.8955 15.39625286  5788"}}, "geometry": {"type": "Point", "coordinates": [-31.630263451537758, 43.39028898957568]}}, {"type": "Feature", "properties": {"norad_id": 66392, "name": "STARLINK-35671", "group": "last-30-days", "lat": 27.43143697878632, "lon": -53.800940965450636, "alt_km": 443.1743265678306, "timestamp": "2025-12-08T17:43:03.630663+00:00", "meta": {"OBJECT_NAME": "STARLINK-35671", "OBJECT_ID": "2025-257N", "EPOCH": "2025-12-08T03:32:39.581376", "MEAN_MOTION": 15.39593668, "ECCENTRICITY": 0.00014385, "INCLINATION": 53.1602, "RA_OF_ASC_NODE": 286.0819, "ARG_OF_PERICENTER": 83.5677, "MEAN_ANOMALY": 276.5491, "EPHEMERIS_TYPE": 0, "CLASSIFICATION_TYPE": "U", "NORAD_CAT_ID": 66392, "ELEMENT_SET_NO": 999, "REV_AT_EPOCH": 566, "BSTAR": 0.0020374587, "MEAN_MOTION_DOT": 0.00081906, "MEAN_MOTION_DDOT": 0}, "tle": {"line1": "1 66392U 25257N   25342.14768034  .00081906  00000+0  20375-2 0  9998", "line2": "2 66392  53.1602 286.0819 0001438  83.5677 276.5491 15.39593668  5667"}}, "geometry": {"type": "Point", "coordinates": [-53.800940965450636, 27.43143697878632]}}, {"type": "Feature", "properties": {"norad_id": 66393, "name": "STARLINK-35652", "group": "last-30-days", "lat": 52.835264049274336, "lon": 4.704326386582424, "alt_km": 439.171029673621, "timestamp": "2025-12-08T17:43:03.630674+00:00", "meta": {"OBJECT_NAME": "STARLINK-35652", "OBJECT_ID": "2025-257P", "EPOCH": "2025-12-08T06:00:02.999808", "MEAN_MOTION": 15.39568592, "ECCENTRICITY": 0.0001301, "INCLINATION": 53.1587, "RA_OF_ASC_NODE": 285.5019, "ARG_OF_PERICENTER": 80.6246, "MEAN_ANOMALY": 176.8365, "EPHEMERIS_TYPE": 0, "CLASSIFICATION_TYPE": "U", "NORAD_CAT_ID": 66393, "ELEMENT_SET_NO": 999, "REV_AT_EPOCH": 577, "BSTAR": 0.0019497913, "MEAN_MOTION_DOT": 0.00078262, "MEAN_MOTION_DDOT": 0}, "tle": {"line1": "1 66393U 25257P   25342.25003472  .00078262  00000+0  19498-2 0  9994", "line2": "2 66393  53.1587 285.5019 0001301  80.6246 176.8365 15.39568592  5777"}}, "geometry": {"type": "Point", "coordinates": [4.704326386582424, 52.835264049274336]}}, {"type": "Feature", "properties": {"norad_id": 66394, "name": "STARLINK-35672", "group": "last-30-days", "lat": 53.014701813095016, "lon": 7.7497092508743215, "alt_km": 439.19927488935537, "timestamp": "2025-12-08T17:43:03.630685+00:00", "meta": {"OBJECT_NAME": "STARLINK-35672", "OBJECT_ID": "2025-257Q", "EPOCH": "2025-12-08T06:00:02.999808", "MEAN_MOTION": 15.39563478, "ECCENTRICITY": 0.00012156, "INCLINATION": 53.1587, "RA_OF_ASC_NODE": 285.4971, "ARG_OF_PERICENTER": 85.4055, "MEAN_ANOMALY": 173.9037, "EPHEMERIS_TYPE": 0, "CLASSIFICATION_TYPE": "U", "NORAD_CAT_ID": 66394, "ELEMENT_SET_NO": 999, "REV_AT_EPOCH": 577, "BSTAR": 0.0021290326, "MEAN_MOTION_DOT": 0.00085561, "MEAN_MOTION_DDOT": 0}, "tle": {"line1": "1 66394U 25257Q   25342.25003472  .00085561  00000+0  21290-2 0  9998", "line2": "2 66394  53.1587 285.4971 0001215  85.4055 173.9037 15.39563478  5771"}}, "geometry": {"type": "Point", "coordinates": [7.7497092508743215, 53.014701813095016]}}, {"type": "Feature", "properties": {"norad_id": 66395, "name": "STARLINK-35681", "group": "last-30-days", "lat": 48.462147578113516, "lon": 45.33860326063105, "alt_km": 439.9911804364974, "timestamp": "2025-12-08T17:43:03.630696+00:00", "meta": {"OBJECT_NAME": "STARLINK-35681", "OBJECT_ID": "2025-257R", "EPOCH": "2025-12-08T06:00:02.999808", "MEAN_MOTION": 15.39562116, "ECCENTRICITY": 0.00010417, "INCLINATION": 53.1593, "RA_OF_ASC_NODE": 285.4505, "ARG_OF_PERICENTER": 93.3337, "MEAN_ANOMALY": 189.9013, "EPHEMERIS_TYPE": 0, "CLASSIFICATION_TYPE": "U", "NORAD_CAT_ID": 66395, "ELEMENT_SET_NO": 999, "REV_AT_EPOCH": 561, "BSTAR": 0.0019924455, "MEAN_MOTION_DOT": 0.00079984, "MEAN_MOTION_DDOT": 0}, "tle": {"line1": "1 66395U 25257R   25342.25003472  .00079984  00000+0  19924-2 0  9992", "line2": "2 66395  53.1593 285.4505 0001041  93.3337 189.9013 15.39562116  5612"}}, "geometry": {"type": "Point", "coordinates": [45.33860326063105, 48.462147578113516]}}]}